start=new Date('2022-08-14T00:00:00.000Z').valueOf();
sats=[{"OBJECT_NAME":"STARLINK-1636","CENTER_NAME":"EARTH","RA_OF_ASC_NODE":"30.3207","APOAPSIS":"548.288","MEAN_ANOMALY":"265.8928","ARG_OF_PERICENTER":"94.2235","SEMIMAJOR_AXIS":"6925.369","TLE_LINE2":"2 46153  53.0553  30.3207 0001522  94.2235 265.8928 15.06393216109806","REF_FRAME":"TEME","LAUNCH_DATE":"2020-08-18","ELEMENT_SET_NO":"999","MEAN_ELEMENT_THEORY":"SGP4","FILE":"3535825","ECCENTRICITY":"0.00015220","DECAY_DATE":null,"MEAN_MOTION_DDOT":"0.0000000000000","EPHEMERIS_TYPE":"0","GP_ID":"210161412","NORAD_CAT_ID":"46153","PERIAPSIS":"546.180","MEAN_MOTION_DOT":"0.00001120","CLASSIFICATION_TYPE":"U","TIME_SYSTEM":"UTC","OBJECT_ID":"2020-057AN","SITE":"AFETR","RCS_SIZE":"LARGE","COUNTRY_CODE":"US","PERIOD":"95.593","TLE_LINE1":"1 46153U 20057AN  22225.73112450  .00001120  00000-0  94124-4 0  9997","MEAN_MOTION":"15.06393216","BSTAR":"0.00009412400000","EPOCH":"2022-08-13T17:32:49.156800","REV_AT_EPOCH":"10980","INCLINATION":"53.0553","OBJECT_TYPE":"PAYLOAD"},{"INCLINATION":"53.0531","OBJECT_TYPE":"PAYLOAD","EPOCH":"2022-08-13T19:22:57.366624","BSTAR":"0.00022644000000","REV_AT_EPOCH":"10968","RCS_SIZE":"LARGE","COUNTRY_CODE":"US","SITE":"AFETR","TLE_LINE1":"1 46154U 20057AP  22225.80760841  .00003093  00000-0  22644-3 0  9997","MEAN_MOTION":"15.06404196","PERIOD":"95.592","PERIAPSIS":"546.357","TIME_SYSTEM":"UTC","OBJECT_ID":"2020-057AP","MEAN_MOTION_DOT":"0.00003093","CLASSIFICATION_TYPE":"U","NORAD_CAT_ID":"46154","DECAY_DATE":null,"FILE":"3535825","ECCENTRICITY":"0.00012180","GP_ID":"210162163","EPHEMERIS_TYPE":"0","MEAN_MOTION_DDOT":"0.0000000000000","ELEMENT_SET_NO":"999","LAUNCH_DATE":"2020-08-18","MEAN_ELEMENT_THEORY":"SGP4","RA_OF_ASC_NODE":"39.9780","CENTER_NAME":"EARTH","OBJECT_NAME":"STARLINK-1642","SEMIMAJOR_AXIS":"6925.336","REF_FRAME":"TEME","TLE_LINE2":"2 46154  53.0531  39.9780 0001218  86.1780 273.9349 15.06404196109684","MEAN_ANOMALY":"273.9349","APOAPSIS":"548.044","ARG_OF_PERICENTER":"86.1780"},{"INCLINATION":"53.0575","OBJECT_TYPE":"PAYLOAD","EPOCH":"2022-08-13T15:12:09.427680","BSTAR":"0.00010928000000","REV_AT_EPOCH":"11131","RCS_SIZE":"LARGE","COUNTRY_CODE":"US","SITE":"AFETR","TLE_LINE1":"1 46155U 20057AQ  22225.63344245  .00001347  00000-0  10928-3 0  9997","MEAN_MOTION":"15.06398754","PERIOD":"95.592","PERIAPSIS":"546.232","OBJECT_ID":"2020-057AQ","TIME_SYSTEM":"UTC","MEAN_MOTION_DOT":"0.00001347","CLASSIFICATION_TYPE":"U","NORAD_CAT_ID":"46155","DECAY_DATE":null,"FILE":"3535825","ECCENTRICITY":"0.00014230","GP_ID":"210160911","EPHEMERIS_TYPE":"0","MEAN_MOTION_DDOT":"0.0000000000000","ELEMENT_SET_NO":"999","LAUNCH_DATE":"2020-08-18","MEAN_ELEMENT_THEORY":"SGP4","RA_OF_ASC_NODE":"10.7620","CENTER_NAME":"EARTH","OBJECT_NAME":"STARLINK-1667","SEMIMAJOR_AXIS":"6925.352","REF_FRAME":"TEME","TLE_LINE2":"2 46155  53.0575  10.7620 0001423  98.1497 261.9653 15.06398754111319","APOAPSIS":"548.203","MEAN_ANOMALY":"261.9653","ARG_OF_PERICENTER":"98.1497"},{"SITE":"AFETR","RCS_SIZE":"LARGE","COUNTRY_CODE":"US","PERIOD":"95.592","TLE_LINE1":"1 46156U 20057AR  22225.69059630  .00005238  00000-0  37021-3 0  9991","MEAN_MOTION":"15.06408497","PERIAPSIS":"546.365","MEAN_MOTION_DOT":"0.00005238","CLASSIFICATION_TYPE":"U","TIME_SYSTEM":"UTC","OBJECT_ID":"2020-057AR","INCLINATION":"53.0562","OBJECT_TYPE":"PAYLOAD","BSTAR":"0.00037021000000","EPOCH":"2022-08-13T16:34:27.520320","REV_AT_EPOCH":"11105","LAUNCH_DATE":"2020-08-18","ELEMENT_SET_NO":"999","MEAN_ELEMENT_THEORY":"SGP4","CENTER_NAME":"EARTH","OBJECT_NAME":"STARLINK-1545","RA_OF_ASC_NODE":"30.4998","APOAPSIS":"548.010","ARG_OF_PERICENTER":"84.8998","MEAN_ANOMALY":"275.2127","SEMIMAJOR_AXIS":"6925.323","TLE_LINE2":"2 46156  53.0562  30.4998 0001187  84.8998 275.2127 15.06408497111059","REF_FRAME":"TEME","NORAD_CAT_ID":"46156","FILE":"3535825","ECCENTRICITY":"0.00011870","DECAY_DATE":null,"MEAN_MOTION_DDOT":"0.0000000000000","EPHEMERIS_TYPE":"0","GP_ID":"210160661"},{"TLE_LINE1":"1 46157U 20057AS  22225.67768343  .00000196  00000-0  32066-4 0  9991","MEAN_MOTION":"15.06394729","PERIOD":"95.592","RCS_SIZE":"LARGE","COUNTRY_CODE":"US","SITE":"AFETR","TIME_SYSTEM":"UTC","OBJECT_ID":"2020-057AS","MEAN_MOTION_DOT":"0.00000196","CLASSIFICATION_TYPE":"U","PERIAPSIS":"546.275","INCLINATION":"53.0570","OBJECT_TYPE":"PAYLOAD","REV_AT_EPOCH":"11008","EPOCH":"2022-08-13T16:15:51.848352","BSTAR":"0.00003206600000","MEAN_ELEMENT_THEORY":"SGP4","ELEMENT_SET_NO":"999","LAUNCH_DATE":"2020-08-18","SEMIMAJOR_AXIS":"6925.365","TLE_LINE2":"2 46157  53.0570  10.5678 0001379  80.3790 279.7354 15.06394729110082","REF_FRAME":"TEME","ARG_OF_PERICENTER":"80.3790","APOAPSIS":"548.185","MEAN_ANOMALY":"279.7354","RA_OF_ASC_NODE":"10.5678","CENTER_NAME":"EARTH","OBJECT_NAME":"STARLINK-1587","NORAD_CAT_ID":"46157","GP_ID":"210161913","MEAN_MOTION_DDOT":"0.0000000000000","EPHEMERIS_TYPE":"0","DECAY_DATE":null,"FILE":"3535825","ECCENTRICITY":"0.00013790"},{"REV_AT_EPOCH":"11135","EPOCH":"2022-08-13T17:46:05.033856","BSTAR":"0.00004622000000","INCLINATION":"53.0567","OBJECT_TYPE":"PAYLOAD","TIME_SYSTEM":"UTC","OBJECT_ID":"2020-057AT","MEAN_MOTION_DOT":"0.00000407","CLASSIFICATION_TYPE":"U","PERIAPSIS":"546.347","TLE_LINE1":"1 46158U 20057AT  22225.74033604  .00000407  00000-0  46220-4 0  9997","MEAN_MOTION":"15.06398747","PERIOD":"95.592","RCS_SIZE":"LARGE","COUNTRY_CODE":"US","SITE":"AFETR","GP_ID":"210161663","EPHEMERIS_TYPE":"0","MEAN_MOTION_DDOT":"0.0000000000000","DECAY_DATE":null,"FILE":"3535825","ECCENTRICITY":"0.00012570","NORAD_CAT_ID":"46158","SEMIMAJOR_AXIS":"6925.352","TLE_LINE2":"2 46158  53.0567  10.2873 0001257 105.0025 255.1103 15.06398747111359","REF_FRAME":"TEME","APOAPSIS":"548.088","ARG_OF_PERICENTER":"105.0025","MEAN_ANOMALY":"255.1103","RA_OF_ASC_NODE":"10.2873","CENTER_NAME":"EARTH","OBJECT_NAME":"STARLINK-1589","MEAN_ELEMENT_THEORY":"SGP4","ELEMENT_SET_NO":"999","LAUNCH_DATE":"2020-08-18"},{"GP_ID":"210160411","MEAN_MOTION_DDOT":"0.0000000000000","EPHEMERIS_TYPE":"0","DECAY_DATE":null,"FILE":"3535825","ECCENTRICITY":"0.00014830","NORAD_CAT_ID":"46159","SEMIMAJOR_AXIS":"6925.327","REF_FRAME":"TEME","TLE_LINE2":"2 46159  53.0550  49.8023 0001483  79.3528 280.7628 15.06407074110808","MEAN_ANOMALY":"280.7628","APOAPSIS":"548.219","ARG_OF_PERICENTER":"79.3528","RA_OF_ASC_NODE":"49.8023","CENTER_NAME":"EARTH","OBJECT_NAME":"STARLINK-1595","MEAN_ELEMENT_THEORY":"SGP4","ELEMENT_SET_NO":"999","LAUNCH_DATE":"2020-08-18","REV_AT_EPOCH":"11080","EPOCH":"2022-08-13T20:20:00.934656","BSTAR":"0.00020794000000","INCLINATION":"53.0550","OBJECT_TYPE":"PAYLOAD","OBJECT_ID":"2020-057AU","TIME_SYSTEM":"UTC","MEAN_MOTION_DOT":"0.00002818","CLASSIFICATION_TYPE":"U","PERIAPSIS":"546.165","TLE_LINE1":"1 46159U 20057AU  22225.84723304  .00002818  00000-0  20794-3 0  9997","MEAN_MOTION":"15.06407074","PERIOD":"95.592","RCS_SIZE":"LARGE","COUNTRY_CODE":"US","SITE":"AFETR"},{"REV_AT_EPOCH":"11106","EPOCH":"2022-08-13T18:31:11.995968","BSTAR":"0.00003163200000","OBJECT_TYPE":"PAYLOAD","INCLINATION":"53.0536","OBJECT_ID":"2020-057AV","TIME_SYSTEM":"UTC","CLASSIFICATION_TYPE":"U","MEAN_MOTION_DOT":"0.00000190","PERIAPSIS":"546.425","MEAN_MOTION":"15.06390104","TLE_LINE1":"1 46160U 20057AV  22225.77166662  .00000190  00000-0  31632-4 0  9994","PERIOD":"95.593","COUNTRY_CODE":"US","RCS_SIZE":"LARGE","SITE":"AFETR","GP_ID":"210161162","MEAN_MOTION_DDOT":"0.0000000000000","EPHEMERIS_TYPE":"0","DECAY_DATE":null,"ECCENTRICITY":"0.00011820","FILE":"3535825","NORAD_CAT_ID":"46160","REF_FRAME":"TEME","TLE_LINE2":"2 46160  53.0536  30.1302 0001182 103.6353 256.4768 15.06390104111069","SEMIMAJOR_AXIS":"6925.379","APOAPSIS":"548.062","MEAN_ANOMALY":"256.4768","ARG_OF_PERICENTER":"103.6353","RA_OF_ASC_NODE":"30.1302","OBJECT_NAME":"STARLINK-1598","CENTER_NAME":"EARTH","MEAN_ELEMENT_THEORY":"SGP4","ELEMENT_SET_NO":"999","LAUNCH_DATE":"2020-08-18"},{"TLE_LINE1":"1 46161U 20057AW  22225.68320629  .00002931  00000-0  21556-3 0  9998","MEAN_MOTION":"15.06403482","PERIOD":"95.592","RCS_SIZE":"LARGE","COUNTRY_CODE":"US","SITE":"AFETR","TIME_SYSTEM":"UTC","OBJECT_ID":"2020-057AW","MEAN_MOTION_DOT":"0.00002931","CLASSIFICATION_TYPE":"U","PERIAPSIS":"546.269","INCLINATION":"53.0548","OBJECT_TYPE":"PAYLOAD","REV_AT_EPOCH":"11105","EPOCH":"2022-08-13T16:23:49.023456","BSTAR":"0.00021556000000","MEAN_ELEMENT_THEORY":"SGP4","ELEMENT_SET_NO":"999","LAUNCH_DATE":"2020-08-18","SEMIMAJOR_AXIS":"6925.338","TLE_LINE2":"2 46161  53.0548  30.5237 0001348 100.6029 259.5112 15.06403482111055","REF_FRAME":"TEME","MEAN_ANOMALY":"259.5112","APOAPSIS":"548.136","ARG_OF_PERICENTER":"100.6029","RA_OF_ASC_NODE":"30.5237","CENTER_NAME":"EARTH","OBJECT_NAME":"STARLINK-1600","NORAD_CAT_ID":"46161","GP_ID":"210161413","EPHEMERIS_TYPE":"0","MEAN_MOTION_DDOT":"0.0000000000000","DECAY_DATE":null,"FILE":"3535825","ECCENTRICITY":"0.00013480"},{"ELEMENT_SET_NO":"999","LAUNCH_DATE":"2020-08-18","MEAN_ELEMENT_THEORY":"SGP4","RA_OF_ASC_NODE":"29.6330","CENTER_NAME":"EARTH","OBJECT_NAME":"STARLINK-1603","TLE_LINE2":"2 46162  53.0551  29.6330 0001388  92.6081 267.5067 15.06395170111091","REF_FRAME":"TEME","SEMIMAJOR_AXIS":"6925.363","APOAPSIS":"548.190","ARG_OF_PERICENTER":"92.6081","MEAN_ANOMALY":"267.5067","NORAD_CAT_ID":"46162","DECAY_DATE":null,"ECCENTRICITY":"0.00013880","FILE":"3535825","GP_ID":"210162164","EPHEMERIS_TYPE":"0","MEAN_MOTION_DDOT":"0.0000000000000","COUNTRY_CODE":"US","RCS_SIZE":"LARGE","SITE":"AFETR","MEAN_MOTION":"15.06395170","TLE_LINE1":"1 46162U 20057AX  22225.88593332 -.00001612  00000-0 -89343-4 0  9990","PERIOD":"95.592","PERIAPSIS":"546.267","OBJECT_ID":"2020-057AX","TIME_SYSTEM":"UTC","CLASSIFICATION_TYPE":"U","MEAN_MOTION_DOT":"-0.00001612","OBJECT_TYPE":"PAYLOAD","INCLINATION":"53.0551","EPOCH":"2022-08-13T21:15:44.638848","BSTAR":"-0.00008934300000","REV_AT_EPOCH":"11109"}];
